[{"OBJECT_NAME":"STARLINK-32812","OBJECT_ID":"2025-034K","EPOCH":"2026-03-09T19:26:09.721536","MEAN_MOTION":15.30192387,"ECCENTRICITY":0.00010183,"INCLINATION":53.1576,"RA_OF_ASC_NODE":257.6733,"ARG_OF_PERICENTER":82.7818,"MEAN_ANOMALY":277.3298,"EPHEMERIS_TYPE":0,"CLASSIFICATION_TYPE":"U","NORAD_CAT_ID":63038,"ELEMENT_SET_NO":999,"REV_AT_EPOCH":5910,"BSTAR":0.0008729409,"MEAN_MOTION_DOT":0.00025578,"MEAN_MOTION_DDOT":0},{"OBJECT_NAME":"COSMOS 1782","OBJECT_ID":"1986-074A","EPOCH":"2026-03-09T22:40:22.374624","MEAN_MOTION":15.33314157,"ECCENTRICITY":0.00054418,"INCLINATION":82.5242,"RA_OF_ASC_NODE":238.1482,"ARG_OF_PERICENTER":197.7479,"MEAN_ANOMALY":162.3574,"EPHEMERIS_TYPE":0,"CLASSIFICATION_TYPE":"U","NORAD_CAT_ID":16986,"ELEMENT_SET_NO":999,"REV_AT_EPOCH":13134,"BSTAR":0.00042191031,"MEAN_MOTION_DOT":0.00013623,"MEAN_MOTION_DDOT":0}]
